[{"OBJECT_NAME":"STARLINK-31930","OBJECT_ID":"2024-150P","EPOCH":"2026-03-09T22:44:11.169600","MEAN_MOTION":15.30193593,"ECCENTRICITY":8.356e-5,"INCLINATION":53.1597,"RA_OF_ASC_NODE":305.6296,"ARG_OF_PERICENTER":107.3237,"MEAN_ANOMALY":252.7855,"EPHEMERIS_TYPE":0,"CLASSIFICATION_TYPE":"U","NORAD_CAT_ID":60596,"ELEMENT_SET_NO":999,"REV_AT_EPOCH":8800,"BSTAR":-0.00017136752,"MEAN_MOTION_DOT":-5.43e-5,"MEAN_MOTION_DDOT":0},{"OBJECT_NAME":"SCS-01 M","OBJECT_ID":"2025-100M","EPOCH":"2026-03-09T23:50:15.541152","MEAN_MOTION":15.31880861,"ECCENTRICITY":0.00078021,"INCLINATION":97.3725,"RA_OF_ASC_NODE":145.6908,"ARG_OF_PERICENTER":292.3826,"MEAN_ANOMALY":67.6588,"EPHEMERIS_TYPE":0,"CLASSIFICATION_TYPE":"U","NORAD_CAT_ID":63993,"ELEMENT_SET_NO":999,"REV_AT_EPOCH":4565,"BSTAR":0.0012010051,"MEAN_MOTION_DOT":0.00037061,"MEAN_MOTION_DDOT":0}]
